CCSDS_OMM_VERS = 2.0
CREATION_DATE  = 
ORIGINATOR     = 

OBJECT_NAME    = STARLINK-36722
OBJECT_ID      = 2026-036P
CENTER_NAME    = EARTH
REF_FRAME      = TEME
TIME_SYSTEM    = UTC
MEAN_ELEMENT_THEORY = SGP/SGP4

EPOCH          = 2026-03-18T12:00:02.998944
MEAN_MOTION    = 15.59043107
ECCENTRICITY   = .0001224
INCLINATION    = 42.9998
RA_OF_ASC_NODE = 196.2445
ARG_OF_PERICENTER = 274.1740
MEAN_ANOMALY   = 346.5727

EPHEMERIS_TYPE = 0
CLASSIFICATION_TYPE = U
NORAD_CAT_ID   = 67917
ELEMENT_SET_NO = 999
REV_AT_EPOCH   = 506
BSTAR          = -.26916E-1
MEAN_MOTION_DOT = -.190423E-1
MEAN_MOTION_DDOT = 0

CCSDS_OMM_VERS = 2.0
CREATION_DATE  = 
ORIGINATOR     = 

OBJECT_NAME    = STARLINK-36341
OBJECT_ID      = 2026-036Q
CENTER_NAME    = EARTH
REF_FRAME      = TEME
TIME_SYSTEM    = UTC
MEAN_ELEMENT_THEORY = SGP/SGP4

EPOCH          = 2026-03-18T12:00:02.998944
MEAN_MOTION    = 15.50551227
ECCENTRICITY   = .0001664
INCLINATION    = 43.0010
RA_OF_ASC_NODE = 197.3238
ARG_OF_PERICENTER = 270.7541
MEAN_ANOMALY   = 272.3597

EPHEMERIS_TYPE = 0
CLASSIFICATION_TYPE = U
NORAD_CAT_ID   = 67918
ELEMENT_SET_NO = 999
REV_AT_EPOCH   = 506
BSTAR          = .6116E-3
MEAN_MOTION_DOT = .35666E-3
MEAN_MOTION_DDOT = 0

CCSDS_OMM_VERS = 2.0
CREATION_DATE  = 
ORIGINATOR     = 

OBJECT_NAME    = STARLINK-36663
OBJECT_ID      = 2026-036R
CENTER_NAME    = EARTH
REF_FRAME      = TEME
TIME_SYSTEM    = UTC
MEAN_ELEMENT_THEORY = SGP/SGP4

EPOCH          = 2026-03-18T12:00:02.998944
MEAN_MOTION    = 15.56206595
ECCENTRICITY   = .0001243
INCLINATION    = 43.0005
RA_OF_ASC_NODE = 196.3813
ARG_OF_PERICENTER = 287.3284
MEAN_ANOMALY   = 278.0243

EPHEMERIS_TYPE = 0
CLASSIFICATION_TYPE = U
NORAD_CAT_ID   = 67919
ELEMENT_SET_NO = 999
REV_AT_EPOCH   = 506
BSTAR          = -.30106E-1
MEAN_MOTION_DOT = -.1911398E-1
MEAN_MOTION_DDOT = 0

CCSDS_OMM_VERS = 2.0
CREATION_DATE  = 
ORIGINATOR     = 

OBJECT_NAME    = STARLINK-36375
OBJECT_ID      = 2026-036S
CENTER_NAME    = EARTH
REF_FRAME      = TEME
TIME_SYSTEM    = UTC
MEAN_ELEMENT_THEORY = SGP/SGP4

EPOCH          = 2026-03-18T12:00:02.998944
MEAN_MOTION    = 15.50541966
ECCENTRICITY   = .0001686
INCLINATION    = 43.0002
RA_OF_ASC_NODE = 196.7163
ARG_OF_PERICENTER = 268.3094
MEAN_ANOMALY   = 160.9500

EPHEMERIS_TYPE = 0
CLASSIFICATION_TYPE = U
NORAD_CAT_ID   = 67920
ELEMENT_SET_NO = 999
REV_AT_EPOCH   = 506
BSTAR          = .34553E-3
MEAN_MOTION_DOT = .19954E-3
MEAN_MOTION_DDOT = 0

CCSDS_OMM_VERS = 2.0
CREATION_DATE  = 
ORIGINATOR     = 

OBJECT_NAME    = STARLINK-36405
OBJECT_ID      = 2026-036T
CENTER_NAME    = EARTH
REF_FRAME      = TEME
TIME_SYSTEM    = UTC
MEAN_ELEMENT_THEORY = SGP/SGP4

EPOCH          = 2026-03-18T12:00:02.998944
MEAN_MOTION    = 15.50548610
ECCENTRICITY   = .0002006
INCLINATION    = 43.0007
RA_OF_ASC_NODE = 197.2889
ARG_OF_PERICENTER = 266.4692
MEAN_ANOMALY   = 291.0177

EPHEMERIS_TYPE = 0
CLASSIFICATION_TYPE = U
NORAD_CAT_ID   = 67921
ELEMENT_SET_NO = 999
REV_AT_EPOCH   = 506
BSTAR          = .37177E-3
MEAN_MOTION_DOT = .21505E-3
MEAN_MOTION_DDOT = 0

CCSDS_OMM_VERS = 2.0
CREATION_DATE  = 
ORIGINATOR     = 

OBJECT_NAME    = STARLINK-36383
OBJECT_ID      = 2026-036U
CENTER_NAME    = EARTH
REF_FRAME      = TEME
TIME_SYSTEM    = UTC
MEAN_ELEMENT_THEORY = SGP/SGP4

EPOCH          = 2026-03-18T00:46:01.153056
MEAN_MOTION    = 15.82105767
ECCENTRICITY   = .00007696
INCLINATION    = 42.9995
RA_OF_ASC_NODE = 198.4891
ARG_OF_PERICENTER = 318.6519
MEAN_ANOMALY   = 41.4294

EPHEMERIS_TYPE = 0
CLASSIFICATION_TYPE = U
NORAD_CAT_ID   = 67922
ELEMENT_SET_NO = 999
REV_AT_EPOCH   = 499
BSTAR          = .12889025E-2
MEAN_MOTION_DOT = .28104E-2
MEAN_MOTION_DDOT = 0

CCSDS_OMM_VERS = 2.0
CREATION_DATE  = 
ORIGINATOR     = 

OBJECT_NAME    = STARLINK-36406
OBJECT_ID      = 2026-036V
CENTER_NAME    = EARTH
REF_FRAME      = TEME
TIME_SYSTEM    = UTC
MEAN_ELEMENT_THEORY = SGP/SGP4

EPOCH          = 2026-03-18T12:00:02.998944
MEAN_MOTION    = 15.50549750
ECCENTRICITY   = .000171
INCLINATION    = 43.0002
RA_OF_ASC_NODE = 197.5657
ARG_OF_PERICENTER = 272.5175
MEAN_ANOMALY   = 172.8153

EPHEMERIS_TYPE = 0
CLASSIFICATION_TYPE = U
NORAD_CAT_ID   = 67923
ELEMENT_SET_NO = 999
REV_AT_EPOCH   = 506
BSTAR          = .34065E-3
MEAN_MOTION_DOT = .19672E-3
MEAN_MOTION_DDOT = 0

CCSDS_OMM_VERS = 2.0
CREATION_DATE  = 
ORIGINATOR     = 

OBJECT_NAME    = STARLINK-36714
OBJECT_ID      = 2026-036W
CENTER_NAME    = EARTH
REF_FRAME      = TEME
TIME_SYSTEM    = UTC
MEAN_ELEMENT_THEORY = SGP/SGP4

EPOCH          = 2026-03-18T12:00:02.998944
MEAN_MOTION    = 15.50525589
ECCENTRICITY   = .0001673
INCLINATION    = 43.0005
RA_OF_ASC_NODE = 196.6337
ARG_OF_PERICENTER = 285.5071
MEAN_ANOMALY   = 177.1984

EPHEMERIS_TYPE = 0
CLASSIFICATION_TYPE = U
NORAD_CAT_ID   = 67924
ELEMENT_SET_NO = 999
REV_AT_EPOCH   = 506
BSTAR          = .44682E-3
MEAN_MOTION_DOT = .25908E-3
MEAN_MOTION_DDOT = 0

CCSDS_OMM_VERS = 2.0
CREATION_DATE  = 
ORIGINATOR     = 

OBJECT_NAME    = STARLINK-36726
OBJECT_ID      = 2026-036X
CENTER_NAME    = EARTH
REF_FRAME      = TEME
TIME_SYSTEM    = UTC
MEAN_ELEMENT_THEORY = SGP/SGP4

EPOCH          = 2026-03-18T12:00:02.998944
MEAN_MOTION    = 15.50547792
ECCENTRICITY   = .0001536
INCLINATION    = 43.0008
RA_OF_ASC_NODE = 197.2618
ARG_OF_PERICENTER = 274.7726
MEAN_ANOMALY   = 293.5326

EPHEMERIS_TYPE = 0
CLASSIFICATION_TYPE = U
NORAD_CAT_ID   = 67925
ELEMENT_SET_NO = 999
REV_AT_EPOCH   = 506
BSTAR          = .52264E-3
MEAN_MOTION_DOT = .30404E-3
MEAN_MOTION_DDOT = 0

CCSDS_OMM_VERS = 2.0
CREATION_DATE  = 
ORIGINATOR     = 

OBJECT_NAME    = STARLINK-36758
OBJECT_ID      = 2026-036Y
CENTER_NAME    = EARTH
REF_FRAME      = TEME
TIME_SYSTEM    = UTC
MEAN_ELEMENT_THEORY = SGP/SGP4

EPOCH          = 2026-03-18T12:00:02.998944
MEAN_MOTION    = 15.50553015
ECCENTRICITY   = .0001538
INCLINATION    = 43.0002
RA_OF_ASC_NODE = 196.7827
ARG_OF_PERICENTER = 280.2727
MEAN_ANOMALY   = 121.7528

EPHEMERIS_TYPE = 0
CLASSIFICATION_TYPE = U
NORAD_CAT_ID   = 67926
ELEMENT_SET_NO = 999
REV_AT_EPOCH   = 506
BSTAR          = .68522E-3
MEAN_MOTION_DOT = .40026E-3
MEAN_MOTION_DDOT = 0

CCSDS_OMM_VERS = 2.0
CREATION_DATE  = 
ORIGINATOR     = 

OBJECT_NAME    = STARLINK-36728
OBJECT_ID      = 2026-036Z
CENTER_NAME    = EARTH
REF_FRAME      = TEME
TIME_SYSTEM    = UTC
MEAN_ELEMENT_THEORY = SGP/SGP4

EPOCH          = 2026-03-18T12:00:02.998944
MEAN_MOTION    = 15.51818393
ECCENTRICITY   = .0001688
INCLINATION    = 43.0002
RA_OF_ASC_NODE = 196.5333
ARG_OF_PERICENTER = 302.2638
MEAN_ANOMALY   = 200.5428

EPHEMERIS_TYPE = 0
CLASSIFICATION_TYPE = U
NORAD_CAT_ID   = 67927
ELEMENT_SET_NO = 999
REV_AT_EPOCH   = 506
BSTAR          = -.32889E-1
MEAN_MOTION_DOT = -.1791216E-1
MEAN_MOTION_DDOT = 0

CCSDS_OMM_VERS = 2.0
CREATION_DATE  = 
ORIGINATOR     = 

OBJECT_NAME    = STARLINK-36771
OBJECT_ID      = 2026-036AA
CENTER_NAME    = EARTH
REF_FRAME      = TEME
TIME_SYSTEM    = UTC
MEAN_ELEMENT_THEORY = SGP/SGP4

EPOCH          = 2026-03-18T12:00:02.998944
MEAN_MOTION    = 15.50540055
ECCENTRICITY   = .0001428
INCLINATION    = 43.0002
RA_OF_ASC_NODE = 196.6597
ARG_OF_PERICENTER = 268.0454
MEAN_ANOMALY   = 183.5046

EPHEMERIS_TYPE = 0
CLASSIFICATION_TYPE = U
NORAD_CAT_ID   = 67928
ELEMENT_SET_NO = 999
REV_AT_EPOCH   = 506
BSTAR          = .50831E-3
MEAN_MOTION_DOT = .2955E-3
MEAN_MOTION_DDOT = 0

