STARLINK-36722          
1 67917U 26036P   26077.50003471 -.01904230  00000+0 -26916-1 0  9994
2 67917  42.9998 196.2445 0001224 274.1740 346.5727 15.59043107  5068
STARLINK-36341          
1 67918U 26036Q   26077.50003471  .00035666  00000+0  61160-3 0  9992
2 67918  43.0010 197.3238 0001664 270.7541 272.3597 15.50551227  5066
STARLINK-36663          
1 67919U 26036R   26077.50003471 -.01911398  00000+0 -30106-1 0  9995
2 67919  43.0005 196.3813 0001243 287.3284 278.0243 15.56206595  5062
STARLINK-36375          
1 67920U 26036S   26077.50003471  .00019954  00000+0  34553-3 0  9993
2 67920  43.0002 196.7163 0001686 268.3094 160.9500 15.50541966  5065
STARLINK-36405          
1 67921U 26036T   26077.50003471  .00021505  00000+0  37177-3 0  9994
2 67921  43.0007 197.2889 0002006 266.4692 291.0177 15.50548610  5061
STARLINK-36383          
1 67922U 26036U   26077.03195779  .00281040  00000+0  12889-2 0  9990
2 67922  42.9995 198.4891 0000769 318.6519  41.4294 15.82105767  4999
STARLINK-36406          
1 67923U 26036V   26077.50003471  .00019672  00000+0  34065-3 0  9991
2 67923  43.0002 197.5657 0001710 272.5175 172.8153 15.50549750  5065
STARLINK-36714          
1 67924U 26036W   26077.50003471  .00025908  00000+0  44682-3 0  9997
2 67924  43.0005 196.6337 0001673 285.5071 177.1984 15.50525589  5065
STARLINK-36726          
1 67925U 26036X   26077.50003471  .00030404  00000+0  52264-3 0  9990
2 67925  43.0008 197.2618 0001536 274.7726 293.5326 15.50547792  5066
STARLINK-36758          
1 67926U 26036Y   26077.50003471  .00040026  00000+0  68522-3 0  9996
2 67926  43.0002 196.7827 0001538 280.2727 121.7528 15.50553015  5063
STARLINK-36728          
1 67927U 26036Z   26077.50003471 -.01791216  00000+0 -32889-1 0  9999
2 67927  43.0002 196.5333 0001688 302.2638 200.5428 15.51818393  5065
STARLINK-36771          
1 67928U 26036AA  26077.50003471  .00029550  00000+0  50831-3 0  9991
2 67928  43.0002 196.6597 0001428 268.0454 183.5046 15.50540055  5068
